MICROCARB               
1 64899U 25156A   26171.47982279  .00000362  00000+0  65076-4 0  9998
2 64899  97.9830 248.5584 0014993 260.7208  99.2304 14.72328320 48451
CO3D 3                  
1 64900U 25156B   26171.47876997  .00003433  00000+0  16165-3 0  9996
2 64900  97.4324 250.1245 0001587 126.6035 233.5346 15.20194218 50030
CO3D 4                  
1 64901U 25156C   26171.41309958  .00000218  00000+0  13182-4 0  9994
2 64901  97.4331 250.0596 0000098 241.9959 118.1266 15.20197278 50026
CO3D 2                  
1 64902U 25156D   26171.37975280  .00003283  00000+0  15474-3 0  9997
2 64902  97.4328 249.9261 0001570 106.6316 253.5091 15.20193266 50011
CO3D 1                  
1 64903U 25156E   26171.05079051  .00004283  00000+0  20076-3 0  9999
2 64903  97.4325 249.6020 0001352 114.2620 245.8756 15.20215547 49961
SENTINEL-6B             
1 66514U 25264A   26171.28694495 -.00000044  00000+0  73559-4 0  9996
2 66514  66.0399 128.7401 0007997 269.1256  90.8843 12.80929983 27566
CAS500-3                
1 66655U 25274F   26171.37510272  .00000922  00000+0  10546-3 0  9993
2 66655  97.7445  99.3536 0006853 102.0514 258.1471 14.88327389 30628
CAS500-2                
1 69013U 26100AK  26171.44244846  .00005146  00000+0  23744-3 0  9999
2 69013  97.4070  69.2409 0010360  24.6187 335.5541 15.20622267  7305
